379P/Spacewatch,e,12.3921,183.9095,31.2366,3.527876,0.1487422,0.33912146,59.7191,09/06.0/2020,2000,g 15.0,4.0
# From MPEC 2020-KB7
380P/PANSTARRS,e,8.2625,132.9779,89.9176,4.544252,0.1017444,0.33041146,46.5592,09/06.0/2020,2000,g 12.5,4.0
# From MPEC 2019-TG9
381P/LINEAR-Spacewatch,e,28.3751,173.7842,173.1227,7.117641,0.0519039,0.68168048,17.9094,09/06.0/2020,2000,g 17.5,2.0
# From MPC115889
382P/Larson,e,7.6889,176.9847,174.1825,6.248362,0.0631037,0.29968533,323.1991,09/06.0/2020,2000,g  8.0,4.0
# From MPC118844
383P/Christensen,e,12.3213,207.8905,133.6405,3.544212,0.1477149,0.59953764,46.6426,09/06.0/2020,2000,g 18.0,4.0
# From MPEC 2020-C98
384P/Kowalski,e,7.2822,354.2263,37.6381,2.901518,0.1994188,0.61536681,65.9226,09/06.0/2020,2000,g 19.5,4.0
# From MPEC 2020-C98
385P/Hill,e,16.8269,357.0685,44.3300,4.288083,0.1109965,0.40128438,39.6494,09/06.0/2020,2000,g 13.0,4.0
# From MPEC 2020-C98
386P/PANSTARRS,e,15.2294,134.9477,353.2571,4.058316,0.1205550,0.41644028,2.1239,09/06.0/2020,2000,g 14.5,4.0
# From MPEC 2020-C98
387P/Boattini,e,8.9172,259.3346,162.7846,4.800335,0.0937123,0.73598246,34.2828,09/06.0/2020,2000,g 15.0,4.0
# From MPEC 2020-HN5
388P/Gibbs,e,23.8612,37.0482,42.3956,5.246575,0.0820144,0.61795628,33.6618,09/06.0/2020,2000,g 13.0,4.0
# From MPC118845
389P/Siding Spring,e,160.0652,218.8502,249.2875,5.626799,0.0738434,0.70443323,18.5904,09/06.0/2020,2000,g 16.0,4.0
# From MPEC 2020-C98
390P/Gibbs,e,18.5593,152.2781,232.3435,5.800266,0.0705557,0.70694559,11.8365,09/06.0/2020,2000,g 12.0,4.0
# From MPEC 2020-AA5
391P/Kowalski,e,21.2762,124.7299,186.7396,4.676506,0.0974590,0.12082365,87.8738,09/06.0/2020,2000,g  8.0,4.0
# From MPEC 2020-HN5
392P/LINEAR,e,4.9295,24.8838,71.9898,6.149268,0.0646352,0.68286454,10.2236,09/06.0/2020,2000,g 14.5,4.0
# From MPEC 2020-K19
393P/Spacewatch-Hill,e,16.7948,36.4214,328.0491,4.784110,0.0941895,0.12026252,29.9419,09/06.0/2020,2000,g 11.0,4.0
# From MPEC 2020-KB7
394P/PANSTARRS,e,8.5296,98.1251,54.5153,4.332908,0.1092785,0.36810585,30.6646,09/06.0/2020,2000,g 16.0,2.4
# From MPEC 2020-K19
395P/Catalina-NEAT,e,3.2800,223.8042,89.8371,6.524673,0.0591379,0.37706081,331.5178,09/06.0/2020,2000,g 10.0,4.0
# From MPEC 2020-KB7
396P/,e,5.4363,136.6609,8.6583,6.823896,0.0552911,0.41632997,20.6783,09/06.0/2020,2000,g 12.0,4.0
# From MPC107687
1I/`Oumuamua,h,09/09.4886/2017,122.6778,24.5997,241.6845,1.199252,0.255240,2000,23.0,2.0
# From MPEC 2020-K19
2I/Borisov,h,12/08.5549/2019,44.0527,308.1480,209.1251,3.356636,2.006548,2000,11.0,4.0
